NORAD_CAT_ID,OBJECT_NAME,OBJECT_TYPE,EPOCH,MEAN_MOTION,ECCENTRICITY,INCLINATION,RA_OF_ASC_NODE,ARG_OF_PERICENTER,MEAN_ANOMALY,BSTAR,MEAN_MOTION_DOT,MEAN_MOTION_DDOT,TLE_LINE0,TLE_LINE1,TLE_LINE2,SEMIMAJOR_AXIS,PERIOD,APOGEE,PERIGEE,DECAYED
52269.0,STARLINK-3791,PAYLOAD,2023-11-11 07:07:48,15.08846682,0.000172,53.2167,322.1909,93.5696,266.5493,0.00017028,2.423e-05,0.0,0 STARLINK-3791,1 52269U 22041J   23315.29708954  .00002423  00000-0  17028-3 0  9993,2 52269  53.2167 322.1909 0001720  93.5696 266.5493 15.08846682 86135,6917.86,95.437,540.915,538.535,0.0
52269.0,STARLINK-3791,PAYLOAD,2023-11-12 03:47:49,15.08837109,0.0001745,53.2161,318.3258,95.1006,265.0186,0.00018865,2.715e-05,0.0,0 STARLINK-3791,1 52269U 22041J   23316.15821528  .00002715  00000-0  18865-3 0  9996,2 52269  53.2161 318.3258 0001745  95.1006 265.0186 15.08837109 87489,6917.889,95.438,540.961,538.547,0.0
52269.0,STARLINK-3791,PAYLOAD,2023-11-12 10:09:22,15.08843204,0.0001701,53.218,317.135,93.0441,267.0745,0.00010984,1.461e-05,0.0,0 STARLINK-3791,1 52269U 22041J   23316.42317256  .00001461  00000-0  10984-3 0  9995,2 52269  53.2180 317.1350 0001701  93.0441 267.0745 15.08843204 86308,6917.871,95.437,540.912,538.559,0.0
52269.0,STARLINK-3791,PAYLOAD,2023-11-13 05:13:59,15.08846812,0.0001637,53.2176,313.5685,97.2232,262.8946,0.00020784,3.022e-05,0.0,0 STARLINK-3791,1 52269U 22041J   23317.21805066  .00003022  00000-0  20784-3 0  9998,2 52269  53.2176 313.5685 0001637  97.2232 262.8946 15.08846812 87648,6917.86,95.437,540.857,538.592,0.0
52269.0,STARLINK-3791,PAYLOAD,2023-11-13 22:43:14,15.08844937,0.0001763,53.2178,310.3001,103.1471,256.9718,0.00012329,1.675e-05,0.0,0 STARLINK-3791,1 52269U 22041J   23317.94669052  .00001675  00000-0  12329-3 0  9999,2 52269  53.2178 310.3001 0001763 103.1471 256.9718 15.08844937 86533,6917.865,95.437,540.95,538.511,0.0
52269.0,STARLINK-3791,PAYLOAD,2023-11-14 03:29:23,15.08840978,0.0001948,53.2184,309.4061,109.8998,250.2204,9.7722e-05,1.267e-05,0.0,0 STARLINK-3791,1 52269U 22041J   23318.14541197  .00001267  00000-0  97722-4 0  9999,2 52269  53.2184 309.4061 0001948 109.8998 250.2204 15.08840978 87783,6917.877,95.437,541.09,538.395,0.0
52269.0,STARLINK-3791,PAYLOAD,2023-11-14 06:40:09,15.08845119,0.0001691,53.2173,308.812,101.075,259.0432,8.0726e-05,9.97e-06,0.0,0 STARLINK-3791,1 52269U 22041J   23318.27789031  .00000997  00000-0  80726-4 0  9999,2 52269  53.2173 308.8120 0001691 101.0750 259.0432 15.08845119 86584,6917.865,95.437,540.9,538.56,0.0
52269.0,STARLINK-3791,PAYLOAD,2023-11-14 16:12:28,15.08841992,0.0001533,53.2165,307.0267,97.1519,262.9648,-9.1554e-06,-4.34e-06,0.0,0 STARLINK-3791,1 52269U 22041J   23318.67532964 -.00000434  00000-0 -91554-5 0  9994,2 52269  53.2165 307.0267 0001533  97.1519 262.9648 15.08841992 86645,6917.874,95.437,540.8,538.679,0.0
52269.0,STARLINK-3791,PAYLOAD,2023-11-15 08:06:20,15.08834348,0.0001656,53.2188,304.0577,100.8342,259.2836,-1.0896e-05,-4.61e-06,0.0,0 STARLINK-3791,1 52269U 22041J   23319.33774169 -.00000461  00000-0 -10896-4 0  9992,2 52269  53.2188 304.0577 0001656 100.8342 259.2836 15.08834348 87964,6917.898,95.438,540.908,538.617,0.0
52269.0,STARLINK-3791,PAYLOAD,2023-11-15 22:24:48,15.08836039,0.0001701,53.2184,301.3779,95.1307,264.9879,9.5466e-05,1.231e-05,0.0,0 STARLINK-3791,1 52269U 22041J   23319.93389976  .00001231  00000-0  95466-4 0  9996,2 52269  53.2184 301.3779 0001701  95.1307 264.9879 15.08836039 86836,6917.892,95.438,540.934,538.581,0.0
52269.0,STARLINK-3791,PAYLOAD,2023-11-16 07:57:07,15.0884222,0.0001632,53.2183,299.5926,91.1974,268.9205,8.5195e-05,1.068e-05,0.0,0 STARLINK-3791,1 52269U 22041J   23320.33133718  .00001068  00000-0  85195-4 0  9999,2 52269  53.2183 299.5926 0001632  91.1974 268.9205 15.08842220 88115,6917.874,95.437,540.868,538.61,0.0
52269.0,STARLINK-3791,PAYLOAD,2023-11-16 22:15:36,15.08834293,0.0001725,53.2182,296.9174,88.5503,271.5686,0.0001448,2.017e-05,0.0,0 STARLINK-3791,1 52269U 22041J   23320.92750274  .00002017  00000-0  14480-3 0  9999,2 52269  53.2182 296.9174 0001725  88.5503 271.5686 15.08834293 86988,6917.898,95.438,540.956,538.569,0.0
52269.0,STARLINK-3791,PAYLOAD,2023-11-17 03:01:45,15.08835083,0.0001736,53.2185,296.0255,88.1565,271.9626,0.00014211,1.974e-05,0.0,0 STARLINK-3791,1 52269U 22041J   23321.12622325  .00001974  00000-0  14211-3 0  9990,2 52269  53.2185 296.0255 0001736  88.1565 271.9626 15.08835083 88234,6917.895,95.438,540.961,538.559,0.0
52269.0,STARLINK-3791,PAYLOAD,2023-11-17 07:47:54,15.08842032,0.0001706,53.2182,295.1321,88.3493,271.7694,0.00013858,1.918e-05,0.0,0 STARLINK-3791,1 52269U 22041J   23321.32493918  .00001918  00000-0  13858-3 0  9990,2 52269  53.2182 295.1321 0001706  88.3493 271.7694 15.08842032 87047,6917.874,95.437,540.919,538.559,0.0
52269.0,STARLINK-3791,PAYLOAD,2023-11-17 15:44:50,15.08840714,0.0001724,53.2183,293.6458,88.2166,271.9023,0.00011899,1.606e-05,0.0,0 STARLINK-3791,1 52269U 22041J   23321.65614079  .00001606  00000-0  11899-3 0  9996,2 52269  53.2183 293.6458 0001724  88.2166 271.9023 15.08840714 87096,6917.878,95.438,540.936,538.551,0.0
52269.0,STARLINK-3791,PAYLOAD,2023-11-18 04:27:55,15.08846598,0.0001582,53.2175,291.2651,94.733,265.3842,9.4957e-05,1.224e-05,0.0,0 STARLINK-3791,1 52269U 22041J   23322.18605646  .00001224  00000-0  94957-4 0  9998,2 52269  53.2175 291.2651 0001582  94.7330 265.3842 15.08846598 88399,6917.86,95.437,540.82,538.631,0.0
52269.0,STARLINK-3791,PAYLOAD,2023-11-18 07:38:41,15.08849212,0.000159,53.2177,290.67,97.0489,263.0684,0.00010706,1.417e-05,0.0,0 STARLINK-3791,1 52269U 22041J   23322.31853469  .00001417  00000-0  10706-3 0  9994,2 52269  53.2177 290.6700 0001590  97.0489 263.0684 15.08849212 87191,6917.852,95.437,540.817,538.617,0.0
52269.0,STARLINK-3791,PAYLOAD,2023-11-18 15:35:37,15.08839245,0.0001755,53.2196,289.1817,97.8712,262.2479,2.3653e-05,8.8e-07,0.0,0 STARLINK-3791,1 52269U 22041J   23322.64974288  .00000088  00000-0  23653-4 0  9992,2 52269  53.2196 289.1817 0001755  97.8712 262.2479 15.08839245 88463,6917.883,95.438,540.962,538.534,0.0
52269.0,STARLINK-3791,PAYLOAD,2023-11-19 07:29:28,15.08844795,0.0001689,53.2186,286.2097,104.8332,255.2847,5.336e-05,5.61e-06,0.0,0 STARLINK-3791,1 52269U 22041J   23323.31213846  .00000561  00000-0  53360-4 0  9997,2 52269  53.2186 286.2097 0001689 104.8332 255.2847 15.08844795 87346,6917.866,95.437,540.899,538.562,0.0
52269.0,STARLINK-3791,PAYLOAD,2023-11-19 21:47:56,15.08844145,0.0001644,53.2181,283.5331,98.7733,261.3446,5.1258e-05,5.28e-06,0.0,0 STARLINK-3791,1 52269U 22041J   23323.90829729  .00000528  00000-0  51258-4 0  9992,2 52269  53.2181 283.5331 0001644  98.7733 261.3446 15.08844145 87431,6917.868,95.437,540.87,538.595,0.0
52269.0,STARLINK-3791,PAYLOAD,2023-11-20 04:09:28,15.08855317,0.0001524,53.218,282.3439,96.1644,263.9522,4.1733e-05,3.76e-06,0.0,0 STARLINK-3791,1 52269U 22041J   23324.17325025  .00000376  00000-0  41733-4 0  9990,2 52269  53.2180 282.3439 0001524  96.1644 263.9522 15.08855317 88691,6917.834,95.437,540.753,538.644,0.0
52269.0,STARLINK-3791,PAYLOAD,2023-11-20 07:20:14,15.08856256,0.0001619,53.2179,281.7493,97.5032,262.6144,7.6229e-05,9.26e-06,0.0,0 STARLINK-3791,1 52269U 22041J   23324.30572868  .00000926  00000-0  76229-4 0  9993,2 52269  53.2179 281.7493 0001619  97.5032 262.6144 15.08856256 87499,6917.831,95.437,540.816,538.576,0.0
52269.0,STARLINK-3791,PAYLOAD,2023-11-20 21:38:44,15.08839539,0.0001524,53.2182,279.0743,95.7288,264.3878,7.9936e-05,9.84e-06,0.0,0 STARLINK-3791,1 52269U 22041J   23324.90190005  .00000984  00000-0  79936-4 0  9990,2 52269  53.2182 279.0743 0001524  95.7288 264.3878 15.08839539 87587,6917.882,95.438,540.801,538.693,0.0
52269.0,STARLINK-3791,PAYLOAD,2023-11-21 04:00:16,15.08841604,0.000148,53.2175,277.8843,91.4042,268.712,0.00010343,1.359e-05,0.0,0 STARLINK-3791,1 52269U 22041J   23325.16685883  .00001359  00000-0  10343-3 0  9995,2 52269  53.2175 277.8843 0001480  91.4042 268.7120 15.08841604 88842,6917.875,95.437,540.764,538.717,0.0
52269.0,STARLINK-3791,PAYLOAD,2023-11-21 21:29:31,15.08837078,0.0001491,53.2166,274.6152,91.0301,269.0862,-3.0507e-05,-7.73e-06,0.0,0 STARLINK-3791,1 52269U 22041J   23325.89550221 -.00000773  00000-0 -30507-4 0  9998,2 52269  53.2166 274.6152 0001491  91.0301 269.0862 15.08837078 87730,6917.889,95.438,540.786,538.723,0.0
52269.0,STARLINK-3791,PAYLOAD,2023-11-22 02:15:40,15.08842618,0.0001408,53.2163,273.7209,85.5156,274.5997,3.6002e-05,2.85e-06,0.0,0 STARLINK-3791,1 52269U 22041J   23326.09421889  .00000285  00000-0  36002-4 0  9990,2 52269  53.2163 273.7209 0001408  85.5156 274.5997 15.08842618 87763,6917.872,95.437,540.711,538.763,0.0
52269.0,STARLINK-3791,PAYLOAD,2023-11-23 03:41:50,15.08852769,0.0001755,53.2171,268.9656,67.4431,292.6747,0.00037145,5.631e-05,0.0,0 STARLINK-3791,1 52269U 22041J   23327.15405749  .00005631  00000-0  37145-3 0  9993,2 52269  53.2171 268.9656 0001755  67.4431 292.6747 15.08852769 89140,6917.841,95.437,540.92,538.492,0.0
52269.0,STARLINK-3791,PAYLOAD,2023-11-23 05:17:13,15.08858857,0.0001561,53.2166,268.6662,100.3729,259.744,0.00042531,6.491e-05,0.0,0 STARLINK-3791,1 52269U 22041J   23327.22029290  .00006491  00000-0  42531-3 0  9994,2 52269  53.2166 268.6662 0001561 100.3729 259.7440 15.08858857 87933,6917.823,95.436,540.768,538.608,0.0
52269.0,STARLINK-3791,PAYLOAD,2023-11-24 03:32:38,15.08834513,0.0001507,53.2162,264.5054,81.0229,279.0933,1.938e-05,2e-07,0.0,0 STARLINK-3791,1 52269U 22041J   23328.14766396  .00000020  00000-0  19380-4 0  9990,2 52269  53.2162 264.5054 0001507  81.0229 279.0933 15.08834513 89295,6917.897,95.438,540.805,538.72,0.0
52269.0,STARLINK-3791,PAYLOAD,2023-11-24 19:26:29,15.08836961,0.0001568,53.2163,261.5322,77.0274,283.0893,0.00030616,4.588e-05,0.0,0 STARLINK-3791,1 52269U 22041J   23328.81006816  .00004588  00000-0  30616-3 0  9995,2 52269  53.2163 261.5322 0001568  77.0274 283.0893 15.08836961 88178,6917.89,95.438,540.839,538.67,0.0
